EOSSAT-1                
1 55053U 23001AW  26068.73619225  .00007695  00000+0  24844-3 0  9992
2 55053  97.3357 130.2294 0011263 110.3168 249.9285 15.32339828176689
STARLINK-34768          
1 65095U 25167T   26068.19918916  .00028114  00000+0  95793-3 0  9993
2 65095  53.1620  29.0121 0001113  92.0767 268.0361 15.30193923 33408
